STARLINK-4667           
1 53707U 22107H   26068.95113356 -.00001088  00000+0 -50272-4 0  9997
2 53707  53.2162 227.9619 0001302 110.5824 249.5308 15.08846316195105
DISKSAT D               
1 67221U 25305C   26068.55257179  .00011599  00000+0  76841-3 0  9999
2 67221  45.0023 251.6339 0003712 319.2749  40.7848 15.07416577 12277
